[{"OBJECT_NAME":"STARLINK-6075","OBJECT_ID":"2023-046K","EPOCH":"2026-03-09T23:11:06.102240","MEAN_MOTION":15.02530441,"ECCENTRICITY":0.00013026,"INCLINATION":43.0018,"RA_OF_ASC_NODE":157.4403,"ARG_OF_PERICENTER":269.7167,"MEAN_ANOMALY":90.3526,"EPHEMERIS_TYPE":0,"CLASSIFICATION_TYPE":"U","NORAD_CAT_ID":56102,"ELEMENT_SET_NO":999,"REV_AT_EPOCH":16210,"BSTAR":-1.9428073e-5,"MEAN_MOTION_DOT":-4.66e-6,"MEAN_MOTION_DDOT":0},{"OBJECT_NAME":"THE ARAB SATELLITE 813","OBJECT_ID":"2025-292B","EPOCH":"2026-03-09T21:37:26.354208","MEAN_MOTION":15.05594469,"ECCENTRICITY":0.00142186,"INCLINATION":97.6379,"RA_OF_ASC_NODE":145.6178,"ARG_OF_PERICENTER":341.4344,"MEAN_ANOMALY":18.6363,"EPHEMERIS_TYPE":0,"CLASSIFICATION_TYPE":"U","NORAD_CAT_ID":66994,"ELEMENT_SET_NO":999,"REV_AT_EPOCH":1350,"BSTAR":0.00043840303,"MEAN_MOTION_DOT":6.274e-5,"MEAN_MOTION_DDOT":0}]
